TEVEL2-9                
1 63237U 25052AD  26068.70229538  .00018694  00000+0  67240-3 0  9992
2 63237  97.4057 324.3929 0007990 124.2475 235.9522 15.28633834 54816
STARLINK-34256          
1 64249U 25119S   26068.04946355  .00029230  00000+0  10672-2 0  9994
2 64249  43.0035 310.4731 0002192 269.1692  90.8908 15.27589160 44073
